[{"OBJECT_NAME":"STARLINK-34511","OBJECT_ID":"2025-176S","EPOCH":"2026-03-09T22:39:07.366464","MEAN_MOTION":15.30194055,"ECCENTRICITY":0.00011155,"INCLINATION":53.1608,"RA_OF_ASC_NODE":151.9536,"ARG_OF_PERICENTER":87.1163,"MEAN_ANOMALY":272.9965,"EPHEMERIS_TYPE":0,"CLASSIFICATION_TYPE":"U","NORAD_CAT_ID":65214,"ELEMENT_SET_NO":999,"REV_AT_EPOCH":3309,"BSTAR":0.00088767553,"MEAN_MOTION_DOT":0.00026018,"MEAN_MOTION_DDOT":0},{"OBJECT_NAME":"OBJECT F","OBJECT_ID":"2021-022F","EPOCH":"2026-03-09T23:37:37.165152","MEAN_MOTION":15.31317672,"ECCENTRICITY":0.00120882,"INCLINATION":97.3982,"RA_OF_ASC_NODE":329.8375,"ARG_OF_PERICENTER":85.9268,"MEAN_ANOMALY":274.3355,"EPHEMERIS_TYPE":0,"CLASSIFICATION_TYPE":"U","NORAD_CAT_ID":47937,"ELEMENT_SET_NO":999,"REV_AT_EPOCH":27452,"BSTAR":0.00038690553,"MEAN_MOTION_DOT":0.00011656,"MEAN_MOTION_DDOT":0}]
